{"type": "FeatureCollection", "features": [ {"type": "Feature", "properties": {"norad_id": 37600, "name": "FENGYUN 1C DEB", "group": "fengyun-1c-debris", "lat": 44.296667758694696, "lon": 129.10017554653044, "alt_km": 704.2862488387127, "timestamp": "2025-12-06T22:38:43.017446+00:00", "meta": {"OBJECT_NAME": "FENGYUN 1C DEB", "OBJECT_ID": "1999-025EKU", "EPOCH": "2025-12-05T16:54:41.229504", "MEAN_MOTION": 13.82454545, "ECCENTRICITY": 0.03574715, "INCLINATION": 98.9362, "RA_OF_ASC_NODE": 136.7535, "ARG_OF_PERICENTER": 68.678, "MEAN_ANOMALY": 295.2139, "EPHEMERIS_TYPE": 0, "CLASSIFICATION_TYPE": "U", "NORAD_CAT_ID": 37600, "ELEMENT_SET_NO": 999, "REV_AT_EPOCH": 88390, "BSTAR": 0.0047689903, "MEAN_MOTION_DOT": 8.396e-05, "MEAN_MOTION_DDOT": 0}, "tle": {"line1": "1 37600U 99025EKU 25339.70464386  .00008396  00000+0  47690-2 0  9994", "line2": "2 37600  98.9362 136.7535 0357471  68.6780 295.2139 13.82454545883907"}}, "geometry": {"type": "Point", "coordinates": [129.10017554653044, 44.296667758694696]}}, {"type": "Feature", "properties": {"norad_id": 37683, "name": "FENGYUN 1C DEB", "group": "fengyun-1c-debris", "lat": -10.505474522148186, "lon": -96.50842099056823, "alt_km": 1519.1718676898809, "timestamp": "2025-12-06T22:38:43.017456+00:00", "meta": {"OBJECT_NAME": "FENGYUN 1C DEB", "OBJECT_ID": "1999-025EKY", "EPOCH": "2025-12-02T13:11:44.275200", "MEAN_MOTION": 13.31856332, "ECCENTRICITY": 0.0584424, "INCLINATION": 98.0017, "RA_OF_ASC_NODE": 258.5506, "ARG_OF_PERICENTER": 151.0621, "MEAN_ANOMALY": 26.3812, "EPHEMERIS_TYPE": 0, "CLASSIFICATION_TYPE": "U", "NORAD_CAT_ID": 37683, "ELEMENT_SET_NO": 999, "REV_AT_EPOCH": 29104, "BSTAR": 0.00139877, "MEAN_MOTION_DOT": 1.732e-05, "MEAN_MOTION_DDOT": 0}, "tle": {"line1": "1 37683U 99025EKY 25336.54981800  .00001732  00000+0  13988-2 0  9999", "line2": "2 37683  98.0017 258.5506 0584424 151.0621  26.3812 13.31856332291041"}}, "geometry": {"type": "Point", "coordinates": [-96.50842099056823, -10.505474522148186]}}, {"type": "Feature", "properties": {"norad_id": 37686, "name": "FENGYUN 1C DEB", "group": "fengyun-1c-debris", "lat": -63.50002930384522, "lon": 18.612666237832997, "alt_km": 1280.9095320776978, "timestamp": "2025-12-06T22:38:43.017466+00:00", "meta": {"OBJECT_NAME": "FENGYUN 1C DEB", "OBJECT_ID": "1999-025ELB", "EPOCH": "2025-12-02T07:33:22.437792", "MEAN_MOTION": 13.35350269, "ECCENTRICITY": 0.0396452, "INCLINATION": 99.0209, "RA_OF_ASC_NODE": 355.9344, "ARG_OF_PERICENTER": 68.1356, "MEAN_ANOMALY": 310.8807, "EPHEMERIS_TYPE": 0, "CLASSIFICATION_TYPE": "U", "NORAD_CAT_ID": 37686, "ELEMENT_SET_NO": 999, "REV_AT_EPOCH": 60488, "BSTAR": 0.0007759, "MEAN_MOTION_DOT": 5.81e-06, "MEAN_MOTION_DDOT": 0}, "tle": {"line1": "1 37686U 99025ELB 25336.31484303  .00000581  00000+0  77590-3 0  9994", "line2": "2 37686  99.0209 355.9344 0396452  68.1356 310.8807 13.35350269604882"}}, "geometry": {"type": "Point", "coordinates": [18.612666237832997, -63.50002930384522]}}, {"type": "Feature", "properties": {"norad_id": 37687, "name": "FENGYUN 1C DEB", "group": "fengyun-1c-debris", "lat": 30.10998734950613, "lon": 11.985991816050069, "alt_km": 707.7362928726634, "timestamp": "2025-12-06T22:38:43.017476+00:00", "meta": {"OBJECT_NAME": "FENGYUN 1C DEB", "OBJECT_ID": "1999-025ELC", "EPOCH": "2025-12-04T22:31:35.154912", "MEAN_MOTION": 13.8519089, "ECCENTRICITY": 0.0333745, "INCLINATION": 98.2045, "RA_OF_ASC_NODE": 15.0265, "ARG_OF_PERICENTER": 20.5325, "MEAN_ANOMALY": 96.3024, "EPHEMERIS_TYPE": 0, "CLASSIFICATION_TYPE": "U", "NORAD_CAT_ID": 37687, "ELEMENT_SET_NO": 999, "REV_AT_EPOCH": 83146, "BSTAR": 0.0074014, "MEAN_MOTION_DOT": 0.00012954, "MEAN_MOTION_DDOT": 0}, "tle": {"line1": "1 37687U 99025ELC 25338.93860133  .00012954  00000+0  74014-2 0  9998", "line2": "2 37687  98.2045  15.0265 0333745  20.5325  96.3024 13.85190890831462"}}, "geometry": {"type": "Point", "coordinates": [11.985991816050069, 30.10998734950613]}}, {"type": "Feature", "properties": {"norad_id": 37689, "name": "FENGYUN 1C DEB", "group": "fengyun-1c-debris", "lat": 2.3395905932256547, "lon": -158.08892958646737, "alt_km": 730.6258634188325, "timestamp": "2025-12-06T22:38:43.017486+00:00", "meta": {"OBJECT_NAME": "FENGYUN 1C DEB", "OBJECT_ID": "1999-025ELE", "EPOCH": "2025-12-06T01:55:54.427584", "MEAN_MOTION": 14.48459711, "ECCENTRICITY": 0.00203163, "INCLINATION": 98.9199, "RA_OF_ASC_NODE": 20.6326, "ARG_OF_PERICENTER": 259.8016, "MEAN_ANOMALY": 100.0884, "EPHEMERIS_TYPE": 0, "CLASSIFICATION_TYPE": "U", "NORAD_CAT_ID": 37689, "ELEMENT_SET_NO": 999, "REV_AT_EPOCH": 57716, "BSTAR": 0.0039467762, "MEAN_MOTION_DOT": 0.00014819, "MEAN_MOTION_DDOT": 0}, "tle": {"line1": "1 37689U 99025ELE 25340.08049106  .00014819  00000+0  39468-2 0  9994", "line2": "2 37689  98.9199  20.6326 0020316 259.8016 100.0884 14.48459711577163"}}, "geometry": {"type": "Point", "coordinates": [-158.08892958646737, 2.3395905932256547]}}, {"type": "Feature", "properties": {"norad_id": 37691, "name": "FENGYUN 1C DEB", "group": "fengyun-1c-debris", "lat": 77.16753927594898, "lon": -155.69673018194933, "alt_km": 680.9269281175957, "timestamp": "2025-12-06T22:38:43.017497+00:00", "meta": {"OBJECT_NAME": "FENGYUN 1C DEB", "OBJECT_ID": "1999-025ELG", "EPOCH": "2025-12-05T11:39:48.105216", "MEAN_MOTION": 14.57370835, "ECCENTRICITY": 0.02808842, "INCLINATION": 98.3726, "RA_OF_ASC_NODE": 243.1169, "ARG_OF_PERICENTER": 172.5567, "MEAN_ANOMALY": 187.9938, "EPHEMERIS_TYPE": 0, "CLASSIFICATION_TYPE": "U", "NORAD_CAT_ID": 37691, "ELEMENT_SET_NO": 999, "REV_AT_EPOCH": 85528, "BSTAR": 0.003181063, "MEAN_MOTION_DOT": 0.00024892, "MEAN_MOTION_DDOT": 0}, "tle": {"line1": "1 37691U 99025ELG 25339.48597344  .00024892  00000+0  31811-2 0  9997", "line2": "2 37691  98.3726 243.1169 0280884 172.5567 187.9938 14.57370835855288"}}, "geometry": {"type": "Point", "coordinates": [-155.69673018194933, 77.16753927594898]}}, {"type": "Feature", "properties": {"norad_id": 37693, "name": "FENGYUN 1C DEB", "group": "fengyun-1c-debris", "lat": 80.60791083405317, "lon": -131.31698661354798, "alt_km": 804.6920012873597, "timestamp": "2025-12-06T22:38:43.017507+00:00", "meta": {"OBJECT_NAME": "FENGYUN 1C DEB", "OBJECT_ID": "1999-025ELJ", "EPOCH": "2025-12-05T18:03:26.349984", "MEAN_MOTION": 14.08461253, "ECCENTRICITY": 0.00725441, "INCLINATION": 98.6975, "RA_OF_ASC_NODE": 339.8006, "ARG_OF_PERICENTER": 94.3443, "MEAN_ANOMALY": 82.7608, "EPHEMERIS_TYPE": 0, "CLASSIFICATION_TYPE": "U", "NORAD_CAT_ID": 37693, "ELEMENT_SET_NO": 999, "REV_AT_EPOCH": 62050, "BSTAR": 0.0009719942, "MEAN_MOTION_DOT": 1.666e-05, "MEAN_MOTION_DDOT": 0}, "tle": {"line1": "1 37693U 99025ELJ 25339.75238831  .00001666  00000+0  97199-3 0  9998", "line2": "2 37693  98.6975 339.8006 0072544  94.3443  82.7608 14.08461253620500"}}, "geometry": {"type": "Point", "coordinates": [-131.31698661354798, 80.60791083405317]}}, {"type": "Feature", "properties": {"norad_id": 37694, "name": "FENGYUN 1C DEB", "group": "fengyun-1c-debris", "lat": 11.576558886835965, "lon": 47.314277962729065, "alt_km": 852.0308335597356, "timestamp": "2025-12-06T22:38:43.017517+00:00", "meta": {"OBJECT_NAME": "FENGYUN 1C DEB", "OBJECT_ID": "1999-025ELK", "EPOCH": "2025-11-23T11:03:37.255104", "MEAN_MOTION": 14.16434986, "ECCENTRICITY": 0.01492409, "INCLINATION": 98.199, "RA_OF_ASC_NODE": 36.5782, "ARG_OF_PERICENTER": 149.1235, "MEAN_ANOMALY": 270.2915, "EPHEMERIS_TYPE": 0, "CLASSIFICATION_TYPE": "U", "NORAD_CAT_ID": 37694, "ELEMENT_SET_NO": 999, "REV_AT_EPOCH": 51431, "BSTAR": 0.0018793287, "MEAN_MOTION_DOT": 4.13e-05, "MEAN_MOTION_DDOT": 0}, "tle": {"line1": "1 37694U 99025ELK 25327.46084786  .00004130  00000+0  18793-2 0  9993", "line2": "2 37694  98.1990  36.5782 0149240 149.1235 270.2915 14.16434986514319"}}, "geometry": {"type": "Point", "coordinates": [47.314277962729065, 11.576558886835965]}}, {"type": "Feature", "properties": {"norad_id": 37695, "name": "FENGYUN 1C DEB", "group": "fengyun-1c-debris", "lat": -81.77155130018105, "lon": 111.98302983189343, "alt_km": 682.6486556296495, "timestamp": "2025-12-06T22:38:43.017527+00:00", "meta": {"OBJECT_NAME": "FENGYUN 1C DEB", "OBJECT_ID": "1999-025ELL", "EPOCH": "2025-12-05T21:35:58.305696", "MEAN_MOTION": 13.64964142, "ECCENTRICITY": 0.04651514, "INCLINATION": 98.2113, "RA_OF_ASC_NODE": 24.2422, "ARG_OF_PERICENTER": 279.1549, "MEAN_ANOMALY": 266.6228, "EPHEMERIS_TYPE": 0, "CLASSIFICATION_TYPE": "U", "NORAD_CAT_ID": 37695, "ELEMENT_SET_NO": 999, "REV_AT_EPOCH": 89158, "BSTAR": 0.001955193, "MEAN_MOTION_DOT": 3.282e-05, "MEAN_MOTION_DDOT": 0}, "tle": {"line1": "1 37695U 99025ELL 25339.89998039  .00003282  00000+0  19552-2 0  9990", "line2": "2 37695  98.2113  24.2422 0465151 279.1549 266.6228 13.64964142891584"}}, "geometry": {"type": "Point", "coordinates": [111.98302983189343, -81.77155130018105]}}, {"type": "Feature", "properties": {"norad_id": 37704, "name": "FENGYUN 1C DEB", "group": "fengyun-1c-debris", "lat": 55.941103472753156, "lon": 7.310797685335976, "alt_km": 932.3955196162087, "timestamp": "2025-12-06T22:38:43.017537+00:00", "meta": {"OBJECT_NAME": "FENGYUN 1C DEB", "OBJECT_ID": "1999-025ELV", "EPOCH": "2025-11-13T18:53:12.256224", "MEAN_MOTION": 13.70394507, "ECCENTRICITY": 0.02407203, "INCLINATION": 98.3154, "RA_OF_ASC_NODE": 154.7598, "ARG_OF_PERICENTER": 256.7939, "MEAN_ANOMALY": 163.8462, "EPHEMERIS_TYPE": 0, "CLASSIFICATION_TYPE": "U", "NORAD_CAT_ID": 37704, "ELEMENT_SET_NO": 999, "REV_AT_EPOCH": 61968, "BSTAR": 0.0028357246, "MEAN_MOTION_DOT": 3.039e-05, "MEAN_MOTION_DDOT": 0}, "tle": {"line1": "1 37704U 99025ELV 25317.78694741  .00003039  00000+0  28357-2 0  9991", "line2": "2 37704  98.3154 154.7598 0240720 256.7939 163.8462 13.70394507619687"}}, "geometry": {"type": "Point", "coordinates": [7.310797685335976, 55.941103472753156]}}]}